NORAD_CAT_ID,OBJECT_NAME,OBJECT_TYPE,EPOCH,MEAN_MOTION,ECCENTRICITY,INCLINATION,RA_OF_ASC_NODE,ARG_OF_PERICENTER,MEAN_ANOMALY,BSTAR,MEAN_MOTION_DOT,MEAN_MOTION_DDOT,TLE_LINE0,TLE_LINE1,TLE_LINE2,SEMIMAJOR_AXIS,PERIOD,APOGEE,PERIGEE,DECAYED
52986.0,STARLINK-4260,PAYLOAD,2023-11-17 06:38:21,15.0883923,0.0001584,53.2179,280.3475,94.4006,265.7167,0.00012992,1.78e-05,0.0,0 STARLINK-4260,1 52986U 22076A   23321.27663974  .00001780  00000-0  12992-3 0  9994,2 52986  53.2179 280.3475 0001584  94.4006 265.7167 15.08839230 75981,6917.883,95.438,540.844,538.652,0.0
52986.0,STARLINK-4260,PAYLOAD,2023-11-17 14:35:17,15.08836775,0.0001766,53.2189,278.8608,84.8436,275.2757,8.0207e-05,9.89e-06,0.0,0 STARLINK-4260,1 52986U 22076A   23321.60784364  .00000989  00000-0  80207-4 0  9993,2 52986  53.2189 278.8608 0001766  84.8436 275.2757 15.08836775 75560,6917.89,95.438,540.977,538.534,0.0
52986.0,STARLINK-4260,PAYLOAD,2023-11-18 06:29:09,15.08840325,0.0001782,53.2186,275.8871,85.7573,274.3623,7.643e-05,9.29e-06,0.0,0 STARLINK-4260,1 52986U 22076A   23322.27024365  .00000929  00000-0  76430-4 0  9992,2 52986  53.2186 275.8871 0001782  85.7573 274.3623 15.08840325 76138,6917.879,95.438,540.977,538.512,0.0
52986.0,STARLINK-4260,PAYLOAD,2023-11-18 14:26:04,15.08845273,0.0001811,53.2193,274.4025,83.8074,276.3125,0.00010011,1.306e-05,0.0,0 STARLINK-4260,1 52986U 22076A   23322.60144209  .00001306  00000-0  10011-3 0  9991,2 52986  53.2193 274.4025 0001811  83.8074 276.3125 15.08845273 75719,6917.864,95.437,540.982,538.476,0.0
52986.0,STARLINK-4260,PAYLOAD,2023-11-18 20:47:37,15.08835529,0.0001696,53.2183,273.2135,87.0209,273.0977,0.00025813,3.822e-05,0.0,0 STARLINK-4260,1 52986U 22076A   23322.86640090  .00003822  00000-0  25813-3 0  9999,2 52986  53.2183 273.2135 0001696  87.0209 273.0977 15.08835529 75750,6917.894,95.438,540.932,538.586,0.0
52986.0,STARLINK-4260,PAYLOAD,2023-11-19 03:09:09,15.08847471,0.0001703,53.2178,272.0243,83.0873,277.0312,0.00018896,2.721e-05,0.0,0 STARLINK-4260,1 52986U 22076A   23323.13135720  .00002721  00000-0  18896-3 0  9999,2 52986  53.2178 272.0243 0001703  83.0873 277.0312 15.08847471 76266,6917.858,95.437,540.901,538.544,0.0
52986.0,STARLINK-4260,PAYLOAD,2023-11-19 14:16:51,15.08850176,0.0001725,53.217,269.9432,81.9151,278.2036,0.00023294,3.422e-05,0.0,0 STARLINK-4260,1 52986U 22076A   23323.59503735  .00003422  00000-0  23294-3 0  9991,2 52986  53.2170 269.9432 0001725  81.9151 278.2036 15.08850176 75860,6917.849,95.437,540.908,538.521,0.0
52986.0,STARLINK-4260,PAYLOAD,2023-11-20 02:59:56,15.08846368,0.000169,53.2181,267.565,84.1103,276.0082,8.0366e-05,9.91e-06,0.0,0 STARLINK-4260,1 52986U 22076A   23324.12495795  .00000991  00000-0  80366-4 0  9999,2 52986  53.2181 267.5650 0001690  84.1103 276.0082 15.08846368 76418,6917.861,95.437,540.895,538.557,0.0
52986.0,STARLINK-4260,PAYLOAD,2023-11-20 06:10:42,15.08851601,0.0001654,53.2181,266.9672,93.046,267.0722,0.00013834,1.915e-05,0.0,0 STARLINK-4260,1 52986U 22076A   23324.25743222  .00001915  00000-0  13834-3 0  9996,2 52986  53.2181 266.9672 0001654  93.0460 267.0722 15.08851601 75966,6917.845,95.437,540.854,538.566,0.0
52986.0,STARLINK-4260,PAYLOAD,2023-11-21 02:50:43,15.0884652,0.0001557,53.218,263.1027,93.1159,267.0011,1.1861e-05,-9.9e-07,0.0,0 STARLINK-4260,1 52986U 22076A   23325.11855587 -.00000099  00000-0  11861-4 0  9992,2 52986  53.2180 263.1027 0001557  93.1159 267.0011 15.08846520 76568,6917.86,95.437,540.803,538.648,0.0
52986.0,STARLINK-4260,PAYLOAD,2023-11-21 20:19:58,15.088401,0.0001554,53.2177,259.8331,94.8031,265.3139,5.8906e-05,6.5e-06,0.0,0 STARLINK-4260,1 52986U 22076A   23325.84720005  .00000650  00000-0  58906-4 0  9991,2 52986  53.2177 259.8331 0001554  94.8031 265.3139 15.08840100 76209,6917.88,95.438,540.82,538.67,0.0
52986.0,STARLINK-4260,PAYLOAD,2023-11-22 02:41:30,15.08847664,0.0001586,53.2168,258.6449,91.6355,268.4818,0.00017297,2.466e-05,0.0,0 STARLINK-4260,1 52986U 22076A   23326.11215514  .00002466  00000-0  17297-3 0  9990,2 52986  53.2168 258.6449 0001586  91.6355 268.4818 15.08847664 76249,6917.857,95.437,540.819,538.625,0.0
52986.0,STARLINK-4260,PAYLOAD,2023-11-23 02:32:17,15.08846459,0.0001698,53.2169,254.1818,101.8334,258.2849,0.00013578,1.874e-05,0.0,0 STARLINK-4260,1 52986U 22076A   23327.10575409  .00001874  00000-0  13578-3 0  9992,2 52986  53.2169 254.1818 0001698 101.8334 258.2849 15.08846459 76866,6917.861,95.437,540.9,538.551,0.0
52986.0,STARLINK-4260,PAYLOAD,2023-11-23 05:43:03,15.08851051,0.0001626,53.2168,253.5837,97.5255,262.5922,0.0001879,2.705e-05,0.0,0 STARLINK-4260,1 52986U 22076A   23327.23823023  .00002705  00000-0  18790-3 0  9999,2 52986  53.2168 253.5837 0001626  97.5255 262.5922 15.08851051 76418,6917.847,95.437,540.836,538.587,0.0
52986.0,STARLINK-4260,PAYLOAD,2023-11-24 02:23:05,15.08830134,0.0001854,53.2181,249.7215,79.0401,281.08,-9.8183e-05,-1.85e-05,0.0,0 STARLINK-4260,1 52986U 22076A   23328.09936686 -.00001850  00000-0 -98183-4 0  9991,2 52986  53.2181 249.7215 0001854  79.0401 281.0800 15.08830134 77018,6917.911,95.438,541.058,538.493,0.0
52986.0,STARLINK-4260,PAYLOAD,2023-11-24 03:58:28,15.08835339,0.0001808,53.218,249.4219,100.1259,259.9937,-3.105e-05,-7.82e-06,0.0,0 STARLINK-4260,1 52986U 22076A   23328.16560303 -.00000782  00000-0 -31050-4 0  9991,2 52986  53.2180 249.4219 0001808 100.1259 259.9937 15.08835339 76559,6917.895,95.438,541.01,538.509,0.0
52986.0,STARLINK-4260,PAYLOAD,2023-11-25 03:49:14,15.08848614,0.0001599,53.2176,244.9591,97.2892,262.8282,0.00036317,5.498e-05,0.0,0 STARLINK-4260,1 52986U 22076A   23329.15920079  .00005498  00000-0  36317-3 0  9998,2 52986  53.2176 244.9591 0001599  97.2892 262.8282 15.08848614 77178,6917.854,95.437,540.825,538.613,0.0
52986.0,STARLINK-4260,PAYLOAD,2023-11-25 22:53:52,15.08855952,0.0001629,53.2179,241.3889,87.7521,272.3658,0.00044552,6.813e-05,0.0,0 STARLINK-4260,1 52986U 22076A   23329.95408073  .00006813  00000-0  44552-3 0  9993,2 52986  53.2179 241.3889 0001629  87.7521 272.3658 15.08855952 77298,6917.832,95.437,540.824,538.57,0.0
52986.0,STARLINK-4260,PAYLOAD,2023-11-26 17:58:30,15.08834655,0.0001457,53.2162,237.8345,61.7032,298.4107,0.00012383,1.683e-05,0.0,0 STARLINK-4260,1 52986U 22076A   23330.74896862  .00001683  00000-0  12383-3 0  9996,2 52986  53.2162 237.8345 0001457  61.7032 298.4107 15.08834655 77414,6917.897,95.438,540.77,538.754,0.0
52986.0,STARLINK-4260,PAYLOAD,2023-11-27 00:20:04,15.08834276,0.0001477,53.2183,236.6325,89.3747,270.7415,-0.00012128,-2.217e-05,0.0,0 STARLINK-4260,1 52986U 22076A   23331.01393569 -.00002217  00000-0 -12128-3 0  9996,2 52986  53.2183 236.6325 0001477  89.3747 270.7415 15.08834276 77451,6917.898,95.438,540.785,538.741,0.0
52986.0,STARLINK-4260,PAYLOAD,2023-11-27 17:49:18,15.08858069,0.0001428,53.2181,233.3585,108.8057,251.3091,-0.00031432,-5.289e-05,0.0,0 STARLINK-4260,1 52986U 22076A   23331.74257153 -.00005289  00000-0 -31432-3 0  9995,2 52986  53.2181 233.3585 0001428 108.8057 251.3091 15.08858069 77561,6917.825,95.436,540.678,538.702,0.0
52986.0,STARLINK-4260,PAYLOAD,2023-11-27 22:35:26,15.08850043,0.0001694,53.2172,232.4671,110.2114,249.906,0.00021801,3.184e-05,0.0,0 STARLINK-4260,1 52986U 22076A   23331.94127480  .00003184  00000-0  21801-3 0  9995,2 52986  53.2172 232.4671 0001694 110.2114 249.9060 15.08850043 77128,6917.85,95.437,540.887,538.543,0.0
52986.0,STARLINK-4260,PAYLOAD,2023-11-28 00:10:49,15.08849276,0.0001502,53.2169,232.1705,96.75,263.3663,0.00020457,2.97e-05,0.0,0 STARLINK-4260,1 52986U 22076A   23332.00751601  .00002970  00000-0  20457-3 0  9999,2 52986  53.2169 232.1705 0001502  96.7500 263.3663 15.08849276 77602,6917.852,95.437,540.756,538.678,0.0
52986.0,STARLINK-4260,PAYLOAD,2023-11-28 03:21:35,15.08848684,0.0001802,53.2169,231.5785,100.9066,259.2129,0.00019748,2.857e-05,0.0,0 STARLINK-4260,1 52986U 22076A   23332.13999656  .00002857  00000-0  19748-3 0  9992,2 52986  53.2169 231.5785 0001802 100.9066 259.2129 15.08848684 77154,6917.854,95.437,540.965,538.472,0.0
52986.0,STARLINK-4260,PAYLOAD,2023-11-28 12:53:55,15.08836371,0.0001557,53.2164,229.7894,141.6493,218.461,0.00011652,1.567e-05,0.0,0 STARLINK-4260,1 52986U 22076A   23332.53744275  .00001567  00000-0  11652-3 0  9994,2 52986  53.2164 229.7894 0001557 141.6493 218.4610 15.08836371 77682,6917.891,95.438,540.834,538.679,0.0
52986.0,STARLINK-4260,PAYLOAD,2023-11-28 22:26:14,15.08826477,0.0001558,53.2172,228.0166,71.987,288.1292,0.00017692,2.528e-05,0.0,0 STARLINK-4260,1 52986U 22076A   23332.93489341  .00002528  00000-0  17692-3 0  9996,2 52986  53.2172 228.0166 0001558  71.9870 288.1292 15.08826477 77271,6917.922,95.438,540.865,538.709,0.0
52986.0,STARLINK-4260,PAYLOAD,2023-11-29 03:12:23,15.08836595,0.0001562,53.2182,227.1163,105.4109,254.7056,0.00011749,1.582e-05,0.0,0 STARLINK-4260,1 52986U 22076A   23333.13360638  .00001582  00000-0  11749-3 0  9992,2 52986  53.2182 227.1163 0001562 105.4109 254.7056 15.08836595 77305,6917.891,95.438,540.836,538.675,0.0
52986.0,STARLINK-4260,PAYLOAD,2023-11-30 03:03:10,15.08855949,0.0001659,53.2172,222.6584,107.7695,252.3478,3.1329e-05,2.11e-06,0.0,0 STARLINK-4260,1 52986U 22076A   23334.12719926  .00000211  00000-0  31329-4 0  9995,2 52986  53.2172 222.6584 0001659 107.7695 252.3478 15.08855949 77927,6917.832,95.437,540.844,538.549,0.0
52986.0,STARLINK-4260,PAYLOAD,2023-11-30 23:43:12,15.08833951,0.0001723,53.2177,218.7985,123.8851,236.2305,6.1613e-05,6.92e-06,0.0,0 STARLINK-4260,1 52986U 22076A   23334.98833386  .00000692  00000-0  61613-4 0  9998,2 52986  53.2177 218.7985 0001723 123.8851 236.2305 15.08833951 78052,6917.899,95.438,540.956,538.572,0.0
52986.0,STARLINK-4260,PAYLOAD,2023-12-01 21:58:34,15.08864001,0.0001606,53.2178,214.6327,108.8194,251.2972,0.00011534,1.549e-05,0.0,0 STARLINK-4260,1 52986U 22076A   23335.91567777  .00001549  00000-0  11534-3 0  9998,2 52986  53.2178 214.6327 0001606 108.8194 251.2972 15.08864001 77721,6917.807,95.436,540.783,538.561,0.0
